[{"OBJECT_NAME":"STARLINK-3854","OBJECT_ID":"2022-052BC","EPOCH":"2026-03-09T17:17:06.210528","MEAN_MOTION":15.08838034,"ECCENTRICITY":0.00012104,"INCLINATION":53.2165,"RA_OF_ASC_NODE":258.9801,"ARG_OF_PERICENTER":92.847,"MEAN_ANOMALY":267.2661,"EPHEMERIS_TYPE":0,"CLASSIFICATION_TYPE":"U","NORAD_CAT_ID":52648,"ELEMENT_SET_NO":999,"REV_AT_EPOCH":21113,"BSTAR":-6.811906e-6,"MEAN_MOTION_DOT":-3.96e-6,"MEAN_MOTION_DDOT":0},{"OBJECT_NAME":"CZ-4C R\/B","OBJECT_ID":"2023-136B","EPOCH":"2026-03-09T22:23:17.511648","MEAN_MOTION":15.02951771,"ECCENTRICITY":0.01088591,"INCLINATION":98.3028,"RA_OF_ASC_NODE":56.8789,"ARG_OF_PERICENTER":268.7974,"MEAN_ANOMALY":90.0776,"EPHEMERIS_TYPE":0,"CLASSIFICATION_TYPE":"U","NORAD_CAT_ID":57798,"ELEMENT_SET_NO":999,"REV_AT_EPOCH":13700,"BSTAR":0.0002043348,"MEAN_MOTION_DOT":3.042e-5,"MEAN_MOTION_DDOT":0}]
